NORAD_CAT_ID,OBJECT_NAME,OBJECT_TYPE,EPOCH,MEAN_MOTION,ECCENTRICITY,INCLINATION,RA_OF_ASC_NODE,ARG_OF_PERICENTER,MEAN_ANOMALY,BSTAR,MEAN_MOTION_DOT,MEAN_MOTION_DDOT,TLE_LINE0,TLE_LINE1,TLE_LINE2,SEMIMAJOR_AXIS,PERIOD,APOGEE,PERIGEE,DECAYED
49179.0,STARLINK-3043,PAYLOAD,2022-12-20 16:08:30,14.98335282,0.0002374,70.0023,337.0943,284.9754,75.1142,0.0001082,1.198e-05,0.0,0 STARLINK-3043,1 49179U 21082BB  22354.67256951  .00001198  00000-0  10820-3 0  9993,2 49179  70.0023 337.0943 0002374 284.9754  75.1142 14.98335282 70954,6950.177,96.107,573.692,570.3919999999998,0.0
49179.0,STARLINK-3043,PAYLOAD,2022-12-21 09:45:58,14.983294199999998,0.0003131,70.0007,335.2428,279.253,80.8275,2.8708e-05,2.5e-06,0.0,0 STARLINK-3043,1 49179U 21082BB  22355.40693018  .00000250  00000-0  28708-4 0  9997,2 49179  70.0007 335.2428 0003131 279.2530  80.8275 14.98329420 71065,6950.195,96.107,574.236,569.884,0.0
49179.0,STARLINK-3043,PAYLOAD,2022-12-22 01:47:18,14.98339923,0.0003134,70.0008,333.5597,279.1024,80.97800000000002,8.274799999999999e-05,8.95e-06,0.0,0 STARLINK-3043,1 49179U 21082BB  22356.07452329  .00000895  00000-0  82748-4 0  9998,2 49179  70.0008 333.5597 0003134 279.1024  80.9780 14.98339923 71166,6950.1619999999975,96.106,574.205,569.849,0.0
49179.0,STARLINK-3043,PAYLOAD,2022-12-22 09:48:00,14.98327891,0.0002827,70.0,332.7168,282.8172,77.2671,-4.5752e-05,-6.39e-06,0.0,0 STARLINK-3043,1 49179U 21082BB  22356.40833458 -.00000639  00000-0 -45752-4 0  9993,2 49179  70.0000 332.7168 0002827 282.8172  77.2671 14.98327891 71211,6950.199000000001,96.107,574.029,570.1,0.0
49179.0,STARLINK-3043,PAYLOAD,2022-12-22 16:12:32,14.98328436,0.0003051,69.9993,332.0452,277.8757,82.2056,3.865e-05,3.68e-06,0.0,0 STARLINK-3043,1 49179U 21082BB  22356.67537192  .00000368  00000-0  38650-4 0  9994,2 49179  69.9993 332.0452 0003051 277.8757  82.2056 14.98328436 71254,6950.198,96.107,574.183,569.942,0.0
49179.0,STARLINK-3043,PAYLOAD,2022-12-23 08:13:52,14.9832693,0.0003201,70.0006,330.3611,279.339,80.7407,0.00013393,1.505e-05,0.0,0 STARLINK-3043,1 49179U 21082BB  22357.34297292  .00001505  00000-0  13393-3 0  9993,2 49179  70.0006 330.3611 0003201 279.3390  80.7407 14.98326930 71358,6950.2019999999975,96.107,574.2919999999998,569.8430000000002,0.0
49179.0,STARLINK-3043,PAYLOAD,2022-12-24 05:03:37,14.98331804,0.0003166,70.0007,328.1734,278.9929,81.0871,7.983e-05,8.599999999999999e-06,0.0,0 STARLINK-3043,1 49179U 21082BB  22358.21085389  .00000860  00000-0  79830-4 0  9994,2 49179  70.0007 328.1734 0003166 278.9929  81.0871 14.98331804 71482,6950.187,96.107,574.253,569.852,0.0
49179.0,STARLINK-3043,PAYLOAD,2022-12-24 21:04:58,14.98337981,0.0003083,70.0007,326.4896,278.436,81.6449,0.00029839,3.47e-05,0.0,0 STARLINK-3043,1 49179U 21082BB  22358.87845093  .00003470  00000-0  29839-3 0  9995,2 49179  70.0007 326.4896 0003083 278.4360  81.6449 14.98337981 71584,6950.168000000002,96.106,574.1759999999998,569.89,0.0
49179.0,STARLINK-3043,PAYLOAD,2022-12-25 03:29:30,14.98345152,0.0002956,70.0015,325.8161,279.0872,80.9953,0.00048895,5.748e-05,0.0,0 STARLINK-3043,1 49179U 21082BB  22359.14548865  .00005748  00000-0  48895-3 0  9996,2 49179  70.0015 325.8161 0002956 279.0872  80.9953 14.98345152 71620,6950.146,96.106,574.065,569.957,0.0
49179.0,STARLINK-3043,PAYLOAD,2022-12-25 06:41:46,14.98334324,0.0002802,70.0021,325.4801,278.387,81.6971,0.00019133,2.191e-05,0.0,0 STARLINK-3043,1 49179U 21082BB  22359.27901296  .00002191  00000-0  19133-3 0  9993,2 49179  70.0021 325.4801 0002802 278.3870  81.6971 14.98334324 71643,6950.18,96.107,573.992,570.097,0.0
49179.0,STARLINK-3043,PAYLOAD,2022-12-25 08:17:54,14.98332527,0.0002813,70.002,325.3117,278.6682,81.4158,0.00011844,1.321e-05,0.0,0 STARLINK-3043,1 49179U 21082BB  22359.34577325  .00001321  00000-0  11844-3 0  9998,2 49179  70.0020 325.3117 0002813 278.6682  81.4158 14.98332527 71656,6950.185,96.107,574.005,570.095,0.0
49179.0,STARLINK-3043,PAYLOAD,2022-12-25 21:06:58,14.98341025,0.0002822,70.0021,323.965,276.688,83.3958,0.00026083,3.021e-05,0.0,0 STARLINK-3043,1 49179U 21082BB  22359.87984859  .00003021  00000-0  26083-3 0  9990,2 49179  70.0021 323.9650 0002822 276.6880  83.3958 14.98341025 71732,6950.159000000002,96.106,573.985,570.062,0.0
49179.0,STARLINK-3043,PAYLOAD,2022-12-26 03:31:31,14.9834296,0.0002959,70.0019,323.2913,279.1265,80.956,0.00034409,4.016e-05,0.0,0 STARLINK-3043,1 49179U 21082BB  22360.14688660  .00004016  00000-0  34409-3 0  9999,2 49179  70.0019 323.2913 0002959 279.1265  80.9560 14.98342960 71775,6950.153,96.106,574.0740000000002,569.961,0.0
49179.0,STARLINK-3043,PAYLOAD,2022-12-26 14:44:27,14.98330253,0.0002856999999999,70.0018,322.1133,278.1671,81.9164,-5.3087e-05,-7.26e-06,0.0,0 STARLINK-3043,1 49179U 21082BB  22360.61421048 -.00000726  00000-0 -53087-4 0  9996,2 49179  70.0018 322.1133 0002857 278.1671  81.9164 14.98330253 71844,6950.191999999999,96.107,574.043,570.071,0.0
49179.0,STARLINK-3043,PAYLOAD,2022-12-27 03:33:31,14.98340146,0.0003031,70.0017,320.7668,277.6959,82.3856,0.00024849,2.874e-05,0.0,0 STARLINK-3043,1 49179U 21082BB  22361.14828685  .00002874  00000-0  24849-3 0  9990,2 49179  70.0017 320.7668 0003031 277.6959  82.3856 14.98340146 71922,6950.1619999999975,96.106,574.133,569.92,0.0
49179.0,STARLINK-3043,PAYLOAD,2022-12-27 14:46:27,14.98351854,0.0003121,70.0018,319.5891,281.3326,78.7483,0.00059708,7.042e-05,0.0,0 STARLINK-3043,1 49179U 21082BB  22361.61560126  .00007042  00000-0  59708-3 0  9999,2 49179  70.0018 319.5891 0003121 281.3326  78.7483 14.98351854 71997,6950.125,96.106,574.159,569.821,0.0
49179.0,STARLINK-3043,PAYLOAD,2022-12-28 06:47:48,14.98343949,0.0003171,70.0014,317.905,277.9711,82.1088,0.00024291,2.808e-05,0.0,0 STARLINK-3043,1 49179U 21082BB  22362.28319758  .00002808  00000-0  24291-3 0  9990,2 49179  70.0014 317.9050 0003171 277.9711  82.1088 14.98343949 72094,6950.15,96.106,574.219,569.811,0.0
49179.0,STARLINK-3043,PAYLOAD,2022-12-28 16:24:37,14.98331652,0.0003011,70.0011,316.8956,275.313,84.7686,1.8131e-05,1.23e-06,0.0,0 STARLINK-3043,1 49179U 21082BB  22362.68376249  .00000123  00000-0  18131-4 0  9997,2 49179  70.0011 316.8956 0003011 275.3130  84.7686 14.98331652 72151,6950.188,96.107,574.145,569.96,0.0
49179.0,STARLINK-3043,PAYLOAD,2022-12-29 03:37:33,14.98326085,0.0003182,70.001,315.7172,279.758,80.322,-0.00018713,-2.325e-05,0.0,0 STARLINK-3043,1 49179U 21082BB  22363.15108477 -.00002325  00000-0 -18713-3 0  9999,2 49179  70.0010 315.7172 0003182 279.7580  80.3220 14.98326085 72222,6950.205,96.107,574.2819999999998,569.8580000000002,0.0
49179.0,STARLINK-3043,PAYLOAD,2022-12-29 19:38:55,14.9831447,0.0003184,70.0009,314.0339,278.5311,81.5487,-0.00022494,-2.775e-05,0.0,0 STARLINK-3043,1 49179U 21082BB  22363.81869381 -.00002775  00000-0 -22494-3 0  9990,2 49179  70.0009 314.0339 0003184 278.5311  81.5487 14.98314470 72322,6950.241,96.108,574.319,569.893,0.0
49179.0,STARLINK-3043,PAYLOAD,2022-12-30 06:51:51,14.98326696,0.0003164,69.9997,312.8557,277.4618,82.6182,-5.3016e-05,-7.25e-06,0.0,0 STARLINK-3043,1 49179U 21082BB  22364.28601455 -.00000725  00000-0 -53016-4 0  9996,2 49179  69.9997 312.8557 0003164 277.4618  82.6182 14.98326696 72393,6950.203,96.107,574.2669999999998,569.869,0.0
49179.0,STARLINK-3043,PAYLOAD,2022-12-31 03:41:36,14.98341179,0.0003109,70.0011,310.6676,277.2159,82.8646,0.00086183,0.00010208,0.0,0 STARLINK-3043,1 49179U 21082BB  22365.15389403  .00010208  00000-0  86183-3 0  9994,2 49179  70.0011 310.6676 0003109 277.2159  82.8646 14.98341179 72523,6950.158,96.106,574.184,569.863,0.0
49179.0,STARLINK-3043,PAYLOAD,2022-12-31 06:53:52,14.98351239,0.0003136,70.0012,310.3305,277.7309,82.3494,0.0010734,0.00012745,0.0,0 STARLINK-3043,1 49179U 21082BB  22365.28741090  .00012745  00000-0  10734-2 0  9998,2 49179  70.0012 310.3305 0003136 277.7309  82.3494 14.98351239 72548,6950.127,96.106,574.172,569.813,0.0
49179.0,STARLINK-3043,PAYLOAD,2022-12-31 13:18:24,14.98358933,0.0003092,70.0012,309.6572,277.7279,82.3529,0.0011098,0.00013184,0.0,0 STARLINK-3043,1 49179U 21082BB  22365.55444701  .00013184  00000-0  11098-2 0  9999,2 49179  70.0012 309.6572 0003092 277.7279  82.3529 14.98358933 72583,6950.103,96.105,574.117,569.819,0.0
49179.0,STARLINK-3043,PAYLOAD,2023-01-01 06:55:52,14.98344336,0.0003416,70.0013,307.8058,281.5705,78.507,0.00024293,2.808e-05,0.0,0 STARLINK-3043,1 49179U 21082BB  23001.28880345  .00002808  00000-0  24293-3 0  9998,2 49179  70.0013 307.8058 0003416 281.5705  78.5070 14.98344336 72692,6950.149,96.106,574.388,569.639,0.0
49179.0,STARLINK-3043,PAYLOAD,2023-01-01 13:20:25,14.9832494,0.0003048,70.0015,307.1313,281.3205,78.7611,-0.00027038,-3.317e-05,0.0,0 STARLINK-3043,1 49179U 21082BB  23001.55584753 -.00003317  00000-0 -27038-3 0  9990,2 49179  70.0015 307.1313 0003048 281.3205  78.7611 14.98324940 72732,6950.209,96.107,574.192,569.955,0.0
49179.0,STARLINK-3043,PAYLOAD,2023-01-02 13:22:27,14.98323928,0.0003224,70.001,304.6069,278.1443,81.9351,-1.1499e-05,-2.3e-06,0.0,0 STARLINK-3043,1 49179U 21082BB  23002.55725762 -.00000230  00000-0 -11499-4 0  9994,2 49179  70.0010 304.6069 0003224 278.1443  81.9351 14.98323928 72889,6950.212,96.107,574.317,569.836,0.0
49179.0,STARLINK-3043,PAYLOAD,2023-01-02 19:46:59,14.98325862,0.0003273,70.0011,303.9338,276.9645,83.1142,0.00018901,2.163e-05,0.0,0 STARLINK-3043,1 49179U 21082BB  23002.82429879  .00002163  00000-0  18901-3 0  9993,2 49179  70.0011 303.9338 0003273 276.9645  83.1142 14.98325862 72921,6950.206,96.107,574.345,569.7959999999998,0.0
49179.0,STARLINK-3043,PAYLOAD,2023-01-03 13:24:27,14.98339339,0.0003227,70.0012,302.0817,278.6342,81.4451,0.0006167,7.275e-05,0.0,0 STARLINK-3043,1 49179U 21082BB  23003.55865708  .00007275  00000-0  61670-3 0  9999,2 49179  70.0012 302.0817 0003227 278.6342  81.4451 14.98339339 73037,6950.1640000000025,96.106,574.2719999999998,569.786,0.0
